{
  "type": "FeatureCollection",
  "features": [
    {
      "type": "Feature",
      "properties": {
        "norad_id": 34350,
        "name": "IRIDIUM 33 DEB",
        "group": "iridium-33-debris",
        "lat": -13.974340312826296,
        "lon": -172.62321207320963,
        "alt_km": 732.3646619163264,
        "timestamp": "2025-12-04T07:39:36.517203+00:00",
        "meta_object_name": "IRIDIUM 33 DEB",
        "meta_object_id": "1997-051ES",
        "meta_epoch": "2025-12-03T13:05:45.086208",
        "meta_mean_motion": 14.45352989,
        "meta_eccentricity": 0.00218806,
        "meta_inclination": 86.3282,
        "meta_ra_of_asc_node": 6.7966,
        "meta_arg_of_pericenter": 164.2068,
        "meta_mean_anomaly": 327.3163,
        "meta_ephemeris_type": 0,
        "meta_classification_type": "U",
        "meta_norad_cat_id": 34350,
        "meta_element_set_no": 999,
        "meta_rev_at_epoch": 88160,
        "meta_bstar": 0.00045695829,
        "meta_mean_motion_dot": 1.63e-05,
        "meta_mean_motion_ddot": 0,
        "tle_line1": "1 34350U 97051ES  25337.54566072  .00001630  00000+0  45696-3 0  9994",
        "tle_line2": "2 34350  86.3282   6.7966 0021880 164.2068 327.3163 14.45352989881604"
      },
      "geometry": {
        "type": "Point",
        "coordinates": [
          -172.62321207320963,
          -13.974340312826296
        ]
      }
    },
    {
      "type": "Feature",
      "properties": {
        "norad_id": 34366,
        "name": "IRIDIUM 33 DEB",
        "group": "iridium-33-debris",
        "lat": -80.16248523342261,
        "lon": -105.55596970433751,
        "alt_km": 721.3924026064988,
        "timestamp": "2025-12-04T07:39:36.517213+00:00",
        "meta_object_name": "IRIDIUM 33 DEB",
        "meta_object_id": "1997-051FJ",
        "meta_epoch": "2025-12-03T16:10:25.403232",
        "meta_mean_motion": 14.53916693,
        "meta_eccentricity": 0.00217683,
        "meta_inclination": 86.3709,
        "meta_ra_of_asc_node": 53.2552,
        "meta_arg_of_pericenter": 168.8,
        "meta_mean_anomaly": 316.5476,
        "meta_ephemeris_type": 0,
        "meta_classification_type": "U",
        "meta_norad_cat_id": 34366,
        "meta_element_set_no": 999,
        "meta_rev_at_epoch": 88050,
        "meta_bstar": 0.0018858841,
        "meta_mean_motion_dot": 7.981e-05,
        "meta_mean_motion_ddot": 0,
        "tle_line1": "1 34366U 97051FJ  25337.67390513  .00007981  00000+0  18859-2 0  9995",
        "tle_line2": "2 34366  86.3709  53.2552 0021768 168.8000 316.5476 14.53916693880506"
      },
      "geometry": {
        "type": "Point",
        "coordinates": [
          -105.55596970433751,
          -80.16248523342261
        ]
      }
    },
    {
      "type": "Feature",
      "properties": {
        "norad_id": 34375,
        "name": "IRIDIUM 33 DEB",
        "group": "iridium-33-debris",
        "lat": -6.765948296199608,
        "lon": 6.514155807382852,
        "alt_km": 774.2185897467443,
        "timestamp": "2025-12-04T07:39:36.517222+00:00",
        "meta_object_name": "IRIDIUM 33 DEB",
        "meta_object_id": "1997-051FT",
        "meta_epoch": "2025-12-03T01:02:45.120192",
        "meta_mean_motion": 14.17964565,
        "meta_eccentricity": 0.01024686,
        "meta_inclination": 86.4333,
        "meta_ra_of_asc_node": 186.6042,
        "meta_arg_of_pericenter": 157.2608,
        "meta_mean_anomaly": 1.3107,
        "meta_ephemeris_type": 0,
        "meta_classification_type": "U",
        "meta_norad_cat_id": 34375,
        "meta_element_set_no": 999,
        "meta_rev_at_epoch": 86574,
        "meta_bstar": 0.00052219187,
        "meta_mean_motion_dot": 1.144e-05,
        "meta_mean_motion_ddot": 0,
        "tle_line1": "1 34375U 97051FT  25337.04357778  .00001144  00000+0  52219-3 0  9996",
        "tle_line2": "2 34375  86.4333 186.6042 0102468 157.2608   1.3107 14.17964565865748"
      },
      "geometry": {
        "type": "Point",
        "coordinates": [
          6.514155807382852,
          -6.765948296199608
        ]
      }
    },
    {
      "type": "Feature",
      "properties": {
        "norad_id": 34376,
        "name": "IRIDIUM 33 DEB",
        "group": "iridium-33-debris",
        "lat": -67.93700038682717,
        "lon": 1.1366044588447854,
        "alt_km": 694.8687694402661,
        "timestamp": "2025-12-04T07:39:36.517235+00:00",
        "meta_object_name": "IRIDIUM 33 DEB",
        "meta_object_id": "1997-051FU",
        "meta_epoch": "2025-12-03T20:28:37.375104",
        "meta_mean_motion": 14.62362508,
        "meta_eccentricity": 0.0026132,
        "meta_inclination": 86.2992,
        "meta_ra_of_asc_node": 10.5349,
        "meta_arg_of_pericenter": 197.0147,
        "meta_mean_anomaly": 163.0191,
        "meta_ephemeris_type": 0,
        "meta_classification_type": "U",
        "meta_norad_cat_id": 34376,
        "meta_element_set_no": 999,
        "meta_rev_at_epoch": 87877,
        "meta_bstar": 0.0029364569,
        "meta_mean_motion_dot": 0.00014948,
        "meta_mean_motion_ddot": 0,
        "tle_line1": "1 34376U 97051FU  25337.85321036  .00014948  00000+0  29365-2 0  9995",
        "tle_line2": "2 34376  86.2992  10.5349 0026132 197.0147 163.0191 14.62362508878771"
      },
      "geometry": {
        "type": "Point",
        "coordinates": [
          1.1366044588447854,
          -67.93700038682717
        ]
      }
    },
    {
      "type": "Feature",
      "properties": {
        "norad_id": 34486,
        "name": "IRIDIUM 33 DEB",
        "group": "iridium-33-debris",
        "lat": -48.389307583094016,
        "lon": -160.018799307764,
        "alt_km": 588.5653062916836,
        "timestamp": "2025-12-04T07:39:36.517245+00:00",
        "meta_object_name": "IRIDIUM 33 DEB",
        "meta_object_id": "1997-051GB",
        "meta_epoch": "2025-12-03T10:02:24.254592",
        "meta_mean_motion": 14.95105578,
        "meta_eccentricity": 0.00129251,
        "meta_inclination": 86.3945,
        "meta_ra_of_asc_node": 16.3253,
        "meta_arg_of_pericenter": 143.3156,
        "meta_mean_anomaly": 279.4709,
        "meta_ephemeris_type": 0,
        "meta_classification_type": "U",
        "meta_norad_cat_id": 34486,
        "meta_element_set_no": 999,
        "meta_rev_at_epoch": 88847,
        "meta_bstar": 0.0028184465,
        "meta_mean_motion_dot": 0.00031064,
        "meta_mean_motion_ddot": 0,
        "tle_line1": "1 34486U 97051GB  25337.41833628  .00031064  00000+0  28184-2 0  9990",
        "tle_line2": "2 34486  86.3945  16.3253 0012925 143.3156 279.4709 14.95105578888472"
      },
      "geometry": {
        "type": "Point",
        "coordinates": [
          -160.018799307764,
          -48.389307583094016
        ]
      }
    },
    {
      "type": "Feature",
      "properties": {
        "norad_id": 34487,
        "name": "IRIDIUM 33 DEB",
        "group": "iridium-33-debris",
        "lat": 26.221588154172995,
        "lon": 17.807031768187226,
        "alt_km": 761.2497432591899,
        "timestamp": "2025-12-04T07:39:36.517254+00:00",
        "meta_object_name": "IRIDIUM 33 DEB",
        "meta_object_id": "1997-051GC",
        "meta_epoch": "2025-12-03T10:12:00.081216",
        "meta_mean_motion": 14.43196495,
        "meta_eccentricity": 0.00319082,
        "meta_inclination": 86.3443,
        "meta_ra_of_asc_node": 16.3873,
        "meta_arg_of_pericenter": 157.9365,
        "meta_mean_anomaly": 266.0119,
        "meta_ephemeris_type": 0,
        "meta_classification_type": "U",
        "meta_norad_cat_id": 34487,
        "meta_element_set_no": 999,
        "meta_rev_at_epoch": 88114,
        "meta_bstar": 0.00029137047,
        "meta_mean_motion_dot": 1.005e-05,
        "meta_mean_motion_ddot": 0,
        "tle_line1": "1 34487U 97051GC  25337.42500094  .00001005  00000+0  29137-3 0  9992",
        "tle_line2": "2 34487  86.3443  16.3873 0031908 157.9365 266.0119 14.43196495881144"
      },
      "geometry": {
        "type": "Point",
        "coordinates": [
          17.807031768187226,
          26.221588154172995
        ]
      }
    },
    {
      "type": "Feature",
      "properties": {
        "norad_id": 34488,
        "name": "IRIDIUM 33 DEB",
        "group": "iridium-33-debris",
        "lat": -49.434455053638835,
        "lon": -54.33122156244252,
        "alt_km": 497.8280770929805,
        "timestamp": "2025-12-04T07:39:36.517263+00:00",
        "meta_object_name": "IRIDIUM 33 DEB",
        "meta_object_id": "1997-051GD",
        "meta_epoch": "2025-12-03T16:08:28.295808",
        "meta_mean_motion": 15.26132536,
        "meta_eccentricity": 0.0015614,
        "meta_inclination": 86.3246,
        "meta_ra_of_asc_node": 310.2938,
        "meta_arg_of_pericenter": 65.1971,
        "meta_mean_anomaly": 295.0897,
        "meta_ephemeris_type": 0,
        "meta_classification_type": "U",
        "meta_norad_cat_id": 34488,
        "meta_element_set_no": 999,
        "meta_rev_at_epoch": 89101,
        "meta_bstar": 0.0060111041,
        "meta_mean_motion_dot": 0.00158686,
        "meta_mean_motion_ddot": 0,
        "tle_line1": "1 34488U 97051GD  25337.67254972  .00158686  00000+0  60111-2 0  9995",
        "tle_line2": "2 34488  86.3246 310.2938 0015614  65.1971 295.0897 15.26132536891013"
      },
      "geometry": {
        "type": "Point",
        "coordinates": [
          -54.33122156244252,
          -49.434455053638835
        ]
      }
    }
  ]
}